personId,name,email,dob,address1,address2,city,state,zipcode,majorIds,bedId
bef9c3d3-efbd-4d40-aa48-1d43be75a89c,Jane Doe,jane.doe@example.com,1962-03-10,773 Maple St,, Salem,FL,,"a680ecae-78a0-4d78-88cd-4f0163e7d4da,32a60bdd-f493-4c44-a9e2-e45c0209be5e,450d53ce-7643-41e5-9d0d-b9d1eacead36,62f9fcfb-92d6-4bc8-96ff-e8847c7b27ae",d5c4db6c-4203-4244-aeb6-df528b8f9603
f9f7459a-abe8-4517-b405-322900931df6,Alice Williams,alice.williams@example.com,1979-09-16,262 Spruce St,, Greenville,PA,,"fcda77f1-d71f-4cbe-bb5c-fb12877aec40,551cfc0c-5de9-4672-90a2-b0f5b644ed8c,9a1dc165-a7e3-4d94-96b3-aed7943cd257,1e0b04ba-18d5-4ab9-a1e5-23449bbc4a0b",3e942384-26f7-4b2a-8bcd-575a2fb55ee6
5d20c644-45ae-4ba0-a085-f921df9a6b77,John Williams,john.williams@example.com,1973-11-03,345 Elm St,, Riverside,NY,,"bd5df5b0-28d6-45d5-8637-31903ae85330,9a1dc165-a7e3-4d94-96b3-aed7943cd257,b6f11273-e674-4c30-afa1-7ee62c1abb4b,fe8da200-3e6c-4017-983e-19b5aff7e800,9e9ca12c-4178-40b5-a715-f166244e3adb",da95ed54-cfa4-4d43-a13f-b0e81a63727f
646df5fa-d628-42a6-b550-b91c2071fdcf,Michael Moore,michael.moore@example.com,1998-09-23,875 Spruce St,, Fairview,PA,,"c6f0e3ea-fc4a-4768-a155-f0bf0b943717,91d3ffda-02df-4108-a302-e3764e021ccf,058ec2ea-9361-4a0a-a0b1-c81e99f2349a,b6f11273-e674-4c30-afa1-7ee62c1abb4b,1e0b04ba-18d5-4ab9-a1e5-23449bbc4a0b",e3f9ab23-56b0-4530-acbe-c57f532d8c41
adc1531c-b933-4ecf-9201-ade32f20150f,Jane Smith,jane.smith@example.com,1976-08-17,155 Cedar St,, Salem,OH,,"551cfc0c-5de9-4672-90a2-b0f5b644ed8c,9630ccdb-1fb5-411d-a129-562993ba0569",dea5e5e5-948a-42c9-9edb-8fc3e37895e3
b45d7f03-5b4e-400e-a4d3-30c2d6116caa,David Moore,david.moore@example.com,1991-05-29,311 Pine St,, Madison,CA,,450d53ce-7643-41e5-9d0d-b9d1eacead36,56a31cac-45da-4e72-ad96-27ea96d4c2d8
65e52aa0-52e3-42eb-8c0e-df2f20a89ada,James Johnson,james.johnson@example.com,1979-06-20,814 Walnut St,, Greenville,NY,,"450d53ce-7643-41e5-9d0d-b9d1eacead36,ab3572a8-144f-4148-9862-465bd9d7148b,b32c172c-a1d5-4cc9-a1fc-f5f4b2365ea4,32a60bdd-f493-4c44-a9e2-e45c0209be5e,cc5f8133-74b9-43cc-b15e-b159a78b93fd",bbeb6e31-52b6-4d23-95ba-30a05227de79
d0e83d4d-9ed0-4708-9641-51558321c4cb,Linda Davis,linda.davis@example.com,1967-03-17,262 Walnut St,, Salem,TX,,c8e9582b-d7bd-48cb-9cab-9f953712e952,01dd6e36-d6f8-4724-98c3-6586f8064795
4397db04-9cc0-4d22-b8ec-0644f469d015,Sarah Johnson,sarah.johnson@example.com,1965-06-14,509 Spruce St,, Madison,IL,,"9630ccdb-1fb5-411d-a129-562993ba0569,9e9ca12c-4178-40b5-a715-f166244e3adb,ab3572a8-144f-4148-9862-465bd9d7148b,058ec2ea-9361-4a0a-a0b1-c81e99f2349a",a16c0f7a-e5c9-435c-a640-0d38230a529f
b024bb86-0c8e-43f8-9129-898eaf5b59cd,James Williams,james.williams@example.com,1996-11-08,557 Spruce St,, Madison,CA,,"ab3572a8-144f-4148-9862-465bd9d7148b,b32c172c-a1d5-4cc9-a1fc-f5f4b2365ea4,9a1dc165-a7e3-4d94-96b3-aed7943cd257",dfb0e9fe-b262-458d-a5a1-3e3fb41fd7a6
be3960de-6e41-4987-bf76-56b15233f485,Alice Miller,alice.miller@example.com,1976-11-13,941 Birch St,, Riverside,PA,,"9a1dc165-a7e3-4d94-96b3-aed7943cd257,62f9fcfb-92d6-4bc8-96ff-e8847c7b27ae",6d03beb2-7dac-492e-ad36-9609ad7e857a
a1ab9012-f4d9-427f-b7d2-5a9f9db52ba6,Alice Johnson,alice.johnson@example.com,1983-11-10,641 Cedar St,, Springfield,FL,,"c8e9582b-d7bd-48cb-9cab-9f953712e952,1e0b04ba-18d5-4ab9-a1e5-23449bbc4a0b,1f2a78f5-deae-438d-be76-6d733a7dac87,4ad06de7-beaf-454c-aeda-59316f4a641c",a9c8ec25-4ae0-403a-aeee-95975cf1e422
8953b652-c227-4f9a-a812-83c39607f77a,James Davis,james.davis@example.com,1951-05-24,150 Cedar St,, Springfield,FL,,"4ad06de7-beaf-454c-aeda-59316f4a641c,058ec2ea-9361-4a0a-a0b1-c81e99f2349a,9630ccdb-1fb5-411d-a129-562993ba0569,e2e80629-cfb6-4daa-b56c-6795ccdc4e48",1babc125-28e9-49a2-be63-eae9b50464b5
edfbd6c7-b49a-470f-b212-74b04613e2a4,David Smith,david.smith@example.com,1992-08-06,280 Elm St,, Georgetown,OH,,"ab3572a8-144f-4148-9862-465bd9d7148b,9a1dc165-a7e3-4d94-96b3-aed7943cd257",2883dad3-0886-4aed-a265-3cd10922e483
11f6cdcc-b7ef-44d0-a503-c04515725f91,Michael Brown,michael.brown@example.com,1964-02-07,369 Walnut St,, Fairview,FL,,"c8e9582b-d7bd-48cb-9cab-9f953712e952,91d3ffda-02df-4108-a302-e3764e021ccf",9a1eaefc-d715-485b-a9f3-e20a26d5033c
519e6306-e2fe-4c52-8a12-1d8ce60c302b,James Doe,james.doe@example.com,1979-01-07,228 Pine St,, Greenville,OH,,"d2d40201-0152-4e55-bf95-406c1f66295b,bc618e46-adeb-4bfa-a8dc-9e7a3bbad058",5248b1a1-5934-4184-997c-b84777398582
deb9465b-bc06-4f32-8974-c3ff0b052481,Jane Moore,jane.moore@example.com,1964-06-10,248 Cedar St,, Greenville,IL,,"62f9fcfb-92d6-4bc8-96ff-e8847c7b27ae,e2e80629-cfb6-4daa-b56c-6795ccdc4e48,cc5f8133-74b9-43cc-b15e-b159a78b93fd,ebbcecbe-be84-4fb4-bb4e-6420356ebe5a,b32c172c-a1d5-4cc9-a1fc-f5f4b2365ea4",be71023e-7b08-424b-84b6-e76fb9d0c848
e3c24146-091c-487b-91f7-412a0d6f9a5f,David Taylor,david.taylor@example.com,1952-01-12,630 Oak St,, Springfield,IL,,"589319dd-8b62-4842-bb7a-855eef1f8d6e,c8e9582b-d7bd-48cb-9cab-9f953712e952",5447380c-8a6b-4d71-b095-b20ce400e45f
68319d83-f319-48cd-8d88-14e69ad08cfd,Michael Williams,michael.williams@example.com,1959-03-03,435 Birch St,, Springfield,OH,,"d25284f4-c84e-48db-b41e-dc42085a55f9,9a1dc165-a7e3-4d94-96b3-aed7943cd257",20e30621-5140-46c2-a9c5-57e96c06de3f
ad9060bb-36ad-49a9-9bec-cdba7ab2eda4,Michael Smith,michael.smith@example.com,1990-02-15,289 Cedar St,, Salem,FL,,b32c172c-a1d5-4cc9-a1fc-f5f4b2365ea4,7c37e605-6a08-4c08-a035-35a37d26e568
c4d2b1a3-f242-4378-b67a-334b016a1d39,Bob Moore,bob.moore@example.com,1999-06-08,519 Pine St,, Springfield,CA,,"058ec2ea-9361-4a0a-a0b1-c81e99f2349a,ebbcecbe-be84-4fb4-bb4e-6420356ebe5a",b1b72dfb-e7d6-4d4c-af3c-4a65c17ee0f0
a03bb15a-6ee0-403e-afef-3e4fbfb1a9b8,Bob Johnson,bob.johnson@example.com,1972-04-24,392 Cedar St,, Salem,OH,,92ba9844-0c5e-4bfa-ad1c-ab41f8ac3d5e,9386a9cd-7665-4875-81d2-939a583d43cb
6bd9f32a-6171-4173-b49e-06e2e4ed884f,Jane Brown,jane.brown@example.com,1971-04-18,641 Spruce St,, Springfield,OH,,058ec2ea-9361-4a0a-a0b1-c81e99f2349a,f4257b38-75ca-4dd1-b0ec-43eea6d13891
830ca023-df7d-4f26-9267-089a7722e8f5,David Williams,david.williams@example.com,1984-04-07,151 Walnut St,, Salem,OH,,9630ccdb-1fb5-411d-a129-562993ba0569,42112afd-dca0-415d-b304-72d380827be9
a04a3724-5e49-476f-9228-8f2fb8f922ee,David Davis,david.davis@example.com,1980-08-16,359 Maple St,, Riverside,NY,,"f5b20856-42b4-48bd-93d9-fbe2712c9e55,589319dd-8b62-4842-bb7a-855eef1f8d6e,b6f11273-e674-4c30-afa1-7ee62c1abb4b",99dbd088-14a4-4c00-85a2-ebfe14c51818
cd2afebf-a173-4f47-8320-f28ac0dcce51,Jane Johnson,jane.johnson@example.com,1952-07-26,523 Oak St,, Greenville,PA,,"9630ccdb-1fb5-411d-a129-562993ba0569,5538f94c-9d38-4c6c-ab29-0987d27ec313,15603f87-6ae3-403c-aad6-3cd82bdddc1e",6d597f47-2ef2-4881-a3c8-a0b4fb9f6af7
0032446a-3578-4371-8942-ea6296b6e522,Jane Williams,jane.williams@example.com,1962-10-06,398 Spruce St,, Madison,PA,,"ce83ec69-0901-4423-87f6-92734cc8feb2,fe8da200-3e6c-4017-983e-19b5aff7e800,1e0b04ba-18d5-4ab9-a1e5-23449bbc4a0b,f5b20856-42b4-48bd-93d9-fbe2712c9e55",5f787e8d-ced5-49f9-b3a3-e243602638aa
e68613c6-f719-4641-9189-32114253ef3d,Sarah Miller,sarah.miller@example.com,1973-01-20,713 Maple St,, Georgetown,OH,,"32a60bdd-f493-4c44-a9e2-e45c0209be5e,32a60bdd-f493-4c44-a9e2-e45c0209be5e",8dc8aad2-988b-4475-8c95-1ca1d55f5eca
ba99cfca-4e31-4883-905f-e9deb4b2b855,Sarah Davis,sarah.davis@example.com,1992-07-27,704 Cedar St,, Fairview,FL,,31a96803-e0b0-464c-b44c-14316de7195f,c8d30499-7764-4039-884e-592b9db4e417
821485e7-83b6-44ec-9dcb-0d4b744f9095,Sarah Wilson,sarah.wilson@example.com,1955-07-09,894 Walnut St,, Greenville,FL,,"1e0b04ba-18d5-4ab9-a1e5-23449bbc4a0b,fe8da200-3e6c-4017-983e-19b5aff7e800",cbe4ec35-15a2-46ee-8303-a21684670583
141cb527-ba79-43d7-81da-e718f97ca7d0,David Doe,david.doe@example.com,1967-12-01,437 Oak St,, Greenville,OH,,c8e9582b-d7bd-48cb-9cab-9f953712e952,fb6e5b14-37ed-43c3-87a8-dc9d220fe824
dcb02bcd-b82e-4507-8450-236c297208e7,Linda Smith,linda.smith@example.com,1980-05-20,201 Maple St,, Madison,PA,,"9e9ca12c-4178-40b5-a715-f166244e3adb,b6f11273-e674-4c30-afa1-7ee62c1abb4b,37b5c1f9-c15a-4947-b64d-025dc64c5241,b6f11273-e674-4c30-afa1-7ee62c1abb4b",8c9abf9b-6861-4620-8224-e4d79abc184e
567d187c-d06e-4f10-a782-b2b39568e42b,Emily Taylor,emily.taylor@example.com,1974-09-20,388 Walnut St,, Madison,CA,,"b6f11273-e674-4c30-afa1-7ee62c1abb4b,1e0b04ba-18d5-4ab9-a1e5-23449bbc4a0b,5e03ed8a-d9fb-4271-aa1d-73df523dcc57,2ab329ca-9f50-4c70-9698-f44934cf4b69",3011f7ba-bd27-4a97-a41e-a2072e4e6f1c
a54d17b9-c641-46de-9d32-fa3154dd128c,Alice Brown,alice.brown@example.com,1953-11-03,904 Birch St,, Riverside,FL,,"91d3ffda-02df-4108-a302-e3764e021ccf,058ec2ea-9361-4a0a-a0b1-c81e99f2349a,15603f87-6ae3-403c-aad6-3cd82bdddc1e,2ab329ca-9f50-4c70-9698-f44934cf4b69,32a60bdd-f493-4c44-a9e2-e45c0209be5e",5ed2131c-7635-40ef-a248-aae162e31e2c
10b6ec61-c235-484f-bf41-c0521d60c03e,Emily Moore,emily.moore@example.com,1954-12-09,454 Maple St,, Madison,FL,,"92ba9844-0c5e-4bfa-ad1c-ab41f8ac3d5e,a680ecae-78a0-4d78-88cd-4f0163e7d4da,ab3572a8-144f-4148-9862-465bd9d7148b,ebbcecbe-be84-4fb4-bb4e-6420356ebe5a,fe8da200-3e6c-4017-983e-19b5aff7e800",5a412a55-860f-4d9f-b69f-0fa30008c51a
d8f33a75-8689-4d2a-811e-4772f20c31f2,Linda Brown,linda.brown@example.com,1997-03-28,358 Pine St,, Madison,IL,,9e9ca12c-4178-40b5-a715-f166244e3adb,372b9229-b90e-4ae2-ac78-1cc0b377f52d
1757134d-c1bc-4ac4-955c-933af8e8d6cf,Jane Taylor,jane.taylor@example.com,1964-10-05,176 Spruce St,, Springfield,OH,,"c8e9582b-d7bd-48cb-9cab-9f953712e952,bd5df5b0-28d6-45d5-8637-31903ae85330,a680ecae-78a0-4d78-88cd-4f0163e7d4da,d25284f4-c84e-48db-b41e-dc42085a55f9,d2d40201-0152-4e55-bf95-406c1f66295b",f50b9d78-c7f4-4992-9580-e3552f904cc5
0c95570f-4f20-4660-a6f4-5b32947aad70,John Johnson,john.johnson@example.com,1984-01-29,610 Maple St,, Riverside,NY,,"d25284f4-c84e-48db-b41e-dc42085a55f9,1f2a78f5-deae-438d-be76-6d733a7dac87,a680ecae-78a0-4d78-88cd-4f0163e7d4da,d2d40201-0152-4e55-bf95-406c1f66295b,9a1dc165-a7e3-4d94-96b3-aed7943cd257",97ecb11a-af8d-451e-ad4a-7057ca83e6fa
f68233aa-13bb-431a-86d6-195f0c108fd9,Bob Wilson,bob.wilson@example.com,1950-12-02,574 Cedar St,, Greenville,FL,,91d3ffda-02df-4108-a302-e3764e021ccf,77ae0b7e-b9ac-4a6b-af78-aa6ab1bb34a7
eca2ac77-ad9a-424b-93d6-8cda69d79fd5,Sarah Moore,sarah.moore@example.com,1982-07-28,469 Spruce St,, Madison,OH,,"ab3572a8-144f-4148-9862-465bd9d7148b,52e4d490-31bd-48ea-ab9b-8f9eaf720b12,32a60bdd-f493-4c44-a9e2-e45c0209be5e",aabcb028-4ee6-4e27-8f41-f4b5183e6dbb
57ed0b05-032d-4eac-8349-204a37aa6178,Bob Williams,bob.williams@example.com,1976-06-30,687 Birch St,, Greenville,CA,,"b32c172c-a1d5-4cc9-a1fc-f5f4b2365ea4,1f2a78f5-deae-438d-be76-6d733a7dac87,ebbcecbe-be84-4fb4-bb4e-6420356ebe5a",91537056-5a11-4359-86c1-90a0fa7eccea
4b7c6648-f993-468b-b4dd-a369b8564f4f,Alice Davis,alice.davis@example.com,1980-05-03,387 Cedar St,, Greenville,CA,,"f5b20856-42b4-48bd-93d9-fbe2712c9e55,92ba9844-0c5e-4bfa-ad1c-ab41f8ac3d5e,fe8da200-3e6c-4017-983e-19b5aff7e800,b6f11273-e674-4c30-afa1-7ee62c1abb4b",86a18b99-154b-4a6d-bcf7-e240419096ca
7ff267cb-6475-4621-a0f3-22de04ea8f5a,Emily Davis,emily.davis@example.com,1987-12-01,926 Maple St,, Greenville,TX,,ebbcecbe-be84-4fb4-bb4e-6420356ebe5a,35f3acaf-a398-4a52-8b3f-4424847454e0
f0c45dfe-743d-47c8-a089-f127582f942b,Bob Davis,bob.davis@example.com,1982-02-07,865 Birch St,, Georgetown,PA,,551cfc0c-5de9-4672-90a2-b0f5b644ed8c,e242b1fa-af67-4c07-94e7-a05070e3d15f
b486891f-da16-452a-a27b-209a071c2f10,Sarah Williams,sarah.williams@example.com,1975-12-20,424 Spruce St,, Madison,FL,,"62f9fcfb-92d6-4bc8-96ff-e8847c7b27ae,92ba9844-0c5e-4bfa-ad1c-ab41f8ac3d5e,589319dd-8b62-4842-bb7a-855eef1f8d6e",3310b826-1d0a-4cd9-a71b-786e71a767f5
