personId,name,email,dob,address1,address2,city,state,zipcode,majorIds,bedId
807db091-b8da-459a-8d1d-18e167350b32,Linda Johnson,linda.johnson@example.com,1983-12-26,646 Cedar St,, Madison,TX,,"c8e9582b-d7bd-48cb-9cab-9f953712e952,91d3ffda-02df-4108-a302-e3764e021ccf,91d3ffda-02df-4108-a302-e3764e021ccf,32a60bdd-f493-4c44-a9e2-e45c0209be5e",
5b519619-c6e8-4887-8c6b-5950983a81f3,Sarah Brown,sarah.brown@example.com,1993-06-28,540 Spruce St,, Salem,OH,,"15603f87-6ae3-403c-aad6-3cd82bdddc1e,32a60bdd-f493-4c44-a9e2-e45c0209be5e,9e9ca12c-4178-40b5-a715-f166244e3adb,9a1dc165-a7e3-4d94-96b3-aed7943cd257,9630ccdb-1fb5-411d-a129-562993ba0569",
b9186768-cfb1-4187-9ab3-6fc1124f7e23,Michael Davis,michael.davis@example.com,1995-11-26,716 Oak St,, Springfield,TX,,"bc618e46-adeb-4bfa-a8dc-9e7a3bbad058,4ad06de7-beaf-454c-aeda-59316f4a641c,2ab329ca-9f50-4c70-9698-f44934cf4b69",
6981a40f-c85a-4b86-aa41-2f57eb95dd95,David Wilson,david.wilson@example.com,1990-09-06,257 Birch St,, Springfield,CA,,"bc618e46-adeb-4bfa-a8dc-9e7a3bbad058,a680ecae-78a0-4d78-88cd-4f0163e7d4da",
67f0a09a-1fd7-455c-8f56-64a2f7423336,Bob Smith,bob.smith@example.com,1961-01-10,394 Spruce St,, Springfield,FL,,"1f2a78f5-deae-438d-be76-6d733a7dac87,52e4d490-31bd-48ea-ab9b-8f9eaf720b12,bc618e46-adeb-4bfa-a8dc-9e7a3bbad058,37b5c1f9-c15a-4947-b64d-025dc64c5241",
94e4df92-8437-4e2e-aceb-a55de2f7c361,Bob Brown,bob.brown@example.com,1975-06-11,120 Birch St,, Georgetown,TX,,"e2e80629-cfb6-4daa-b56c-6795ccdc4e48,62f9fcfb-92d6-4bc8-96ff-e8847c7b27ae,91d3ffda-02df-4108-a302-e3764e021ccf,ce83ec69-0901-4423-87f6-92734cc8feb2,92ba9844-0c5e-4bfa-ad1c-ab41f8ac3d5e",
ccdb7eff-e8da-41a7-abf1-525f5feafbeb,Emily Doe,emily.doe@example.com,1961-08-14,803 Elm St,, Salem,IL,,"d2d40201-0152-4e55-bf95-406c1f66295b,37b5c1f9-c15a-4947-b64d-025dc64c5241",
83b1731b-3a9d-4c3d-9455-1ad728e83e0c,Linda Wilson,linda.wilson@example.com,1982-02-05,193 Birch St,, Fairview,NY,,"31a96803-e0b0-464c-b44c-14316de7195f,d25284f4-c84e-48db-b41e-dc42085a55f9",
f0d6e31d-31ce-4aa0-bc81-2cc56db52ccb,Sarah Smith,sarah.smith@example.com,1975-12-12,877 Walnut St,, Greenville,NY,,"ab3572a8-144f-4148-9862-465bd9d7148b,9630ccdb-1fb5-411d-a129-562993ba0569,f5b20856-42b4-48bd-93d9-fbe2712c9e55",
1b671bdf-b185-4d5a-a316-22515a7bef98,James Taylor,james.taylor@example.com,1981-01-26,260 Birch St,, Riverside,PA,,"e2e80629-cfb6-4daa-b56c-6795ccdc4e48,d464054e-8f96-4d3d-b9d5-a40f34507b88,c8e9582b-d7bd-48cb-9cab-9f953712e952",
b7390b6c-38a9-4cc1-bc38-7258f657a606,James Smith,james.smith@example.com,1950-01-23,881 Cedar St,, Madison,NY,,"e6f83c77-1538-4fec-934c-6a4ec6617268,058ec2ea-9361-4a0a-a0b1-c81e99f2349a,551cfc0c-5de9-4672-90a2-b0f5b644ed8c",
f67a884b-ca2b-4397-a39d-1cf5dc7f0326,Bob Miller,bob.miller@example.com,1985-05-15,549 Spruce St,, Georgetown,TX,,"32a60bdd-f493-4c44-a9e2-e45c0209be5e,bc618e46-adeb-4bfa-a8dc-9e7a3bbad058,d25284f4-c84e-48db-b41e-dc42085a55f9,62f9fcfb-92d6-4bc8-96ff-e8847c7b27ae,2ab329ca-9f50-4c70-9698-f44934cf4b69",
3ec0b366-c6a5-4591-b3cb-3530ad9cff0f,Jane Davis,jane.davis@example.com,1994-12-29,564 Walnut St,, Riverside,TX,,"450d53ce-7643-41e5-9d0d-b9d1eacead36,32a60bdd-f493-4c44-a9e2-e45c0209be5e,c6f0e3ea-fc4a-4768-a155-f0bf0b943717,e2e80629-cfb6-4daa-b56c-6795ccdc4e48,1e0b04ba-18d5-4ab9-a1e5-23449bbc4a0b",
417b8fe4-41af-4b93-8bf0-a8e70c0c1fe0,John Smith,john.smith@example.com,1953-05-12,902 Pine St,, Georgetown,TX,,"b32c172c-a1d5-4cc9-a1fc-f5f4b2365ea4,1f2a78f5-deae-438d-be76-6d733a7dac87,b32c172c-a1d5-4cc9-a1fc-f5f4b2365ea4,fcda77f1-d71f-4cbe-bb5c-fb12877aec40",
6f45a1bb-74e3-4a2c-a027-3db1994251d7,Linda Williams,linda.williams@example.com,1952-05-13,427 Maple St,, Springfield,CA,,"1e0b04ba-18d5-4ab9-a1e5-23449bbc4a0b,551cfc0c-5de9-4672-90a2-b0f5b644ed8c,62f9fcfb-92d6-4bc8-96ff-e8847c7b27ae,a680ecae-78a0-4d78-88cd-4f0163e7d4da,058ec2ea-9361-4a0a-a0b1-c81e99f2349a",
b4889934-770d-4978-9e28-c4d6797cabbe,Emily Johnson,emily.johnson@example.com,1961-01-22,513 Walnut St,, Fairview,OH,,"d2d40201-0152-4e55-bf95-406c1f66295b,1e0b04ba-18d5-4ab9-a1e5-23449bbc4a0b",
01c31487-8d2e-4abd-9fa3-6c5d0e56c606,Linda Miller,linda.miller@example.com,1970-08-22,369 Birch St,, Madison,IL,,2ab329ca-9f50-4c70-9698-f44934cf4b69,
0c9fe248-10da-4815-a4db-2492098997bd,Michael Miller,michael.miller@example.com,1960-09-06,605 Cedar St,, Greenville,IL,,"551cfc0c-5de9-4672-90a2-b0f5b644ed8c,d25284f4-c84e-48db-b41e-dc42085a55f9,2ab329ca-9f50-4c70-9698-f44934cf4b69",
4dabdb5d-10aa-430c-9d77-eae1c595d63e,Linda Doe,linda.doe@example.com,1972-05-30,886 Pine St,, Fairview,FL,,"9e9ca12c-4178-40b5-a715-f166244e3adb,fcda77f1-d71f-4cbe-bb5c-fb12877aec40,91d3ffda-02df-4108-a302-e3764e021ccf,c6f0e3ea-fc4a-4768-a155-f0bf0b943717",
ff6d53c4-7c60-4c43-96e9-0eec2bb2b427,Sarah Doe,sarah.doe@example.com,1989-08-26,361 Walnut St,, Madison,NY,,"92ba9844-0c5e-4bfa-ad1c-ab41f8ac3d5e,9a1dc165-a7e3-4d94-96b3-aed7943cd257,1e0b04ba-18d5-4ab9-a1e5-23449bbc4a0b",
3d100e03-e62b-4550-af06-ae339b04ebc0,Michael Doe,michael.doe@example.com,1956-10-09,254 Cedar St,, Fairview,CA,,e6f83c77-1538-4fec-934c-6a4ec6617268,
5c8d3d5b-1689-45f6-9cc6-9909c51f834e,Alice Doe,alice.doe@example.com,1981-05-17,735 Elm St,, Georgetown,NY,,"52e4d490-31bd-48ea-ab9b-8f9eaf720b12,c6f0e3ea-fc4a-4768-a155-f0bf0b943717",
3f261522-2caf-49a0-84e9-dc9e75165e46,David Brown,david.brown@example.com,1977-12-01,290 Maple St,, Georgetown,TX,,"f5b20856-42b4-48bd-93d9-fbe2712c9e55,d25284f4-c84e-48db-b41e-dc42085a55f9,bc618e46-adeb-4bfa-a8dc-9e7a3bbad058",
f571b317-8f9b-4456-8897-8f1b8299d6a2,Bob Taylor,bob.taylor@example.com,1955-02-26,976 Oak St,, Riverside,CA,,"9630ccdb-1fb5-411d-a129-562993ba0569,2ab329ca-9f50-4c70-9698-f44934cf4b69",
3e6f3f59-1ce5-4955-bdfa-a40f9d6c35c1,David Johnson,david.johnson@example.com,1965-03-12,128 Oak St,, Georgetown,IL,,"e2e80629-cfb6-4daa-b56c-6795ccdc4e48,b6f11273-e674-4c30-afa1-7ee62c1abb4b,c8e9582b-d7bd-48cb-9cab-9f953712e952,d2d40201-0152-4e55-bf95-406c1f66295b",
fd83793a-a1bd-4666-ba26-6565209b21c4,John Miller,john.miller@example.com,1979-05-21,506 Birch St,, Madison,FL,,"589319dd-8b62-4842-bb7a-855eef1f8d6e,551cfc0c-5de9-4672-90a2-b0f5b644ed8c,c8e9582b-d7bd-48cb-9cab-9f953712e952,31a96803-e0b0-464c-b44c-14316de7195f,1e0b04ba-18d5-4ab9-a1e5-23449bbc4a0b",
8181968f-7711-4546-b563-040d4a0a51da,Alice Smith,alice.smith@example.com,1972-01-20,590 Pine St,, Fairview,NY,,b6f11273-e674-4c30-afa1-7ee62c1abb4b,
58f93b32-6be4-47cf-bfd2-08fc69b37bea,Michael Johnson,michael.johnson@example.com,1977-05-10,491 Cedar St,, Riverside,CA,,551cfc0c-5de9-4672-90a2-b0f5b644ed8c,
4c102f54-91b4-4c54-a4e1-5ac7900de039,James Moore,james.moore@example.com,1989-10-16,731 Birch St,, Greenville,FL,,b32c172c-a1d5-4cc9-a1fc-f5f4b2365ea4,
9029bd80-06d7-44d5-9e64-dac9bb0c3ebf,Emily Brown,emily.brown@example.com,1983-09-14,573 Cedar St,, Riverside,IL,,"f5b20856-42b4-48bd-93d9-fbe2712c9e55,d2d40201-0152-4e55-bf95-406c1f66295b,d25284f4-c84e-48db-b41e-dc42085a55f9,1f2a78f5-deae-438d-be76-6d733a7dac87",
52370f47-fd65-478b-b29b-d158f460da9c,Michael Taylor,michael.taylor@example.com,1986-01-18,684 Spruce St,, Madison,OH,,"f5b20856-42b4-48bd-93d9-fbe2712c9e55,450d53ce-7643-41e5-9d0d-b9d1eacead36,fe8da200-3e6c-4017-983e-19b5aff7e800,d25284f4-c84e-48db-b41e-dc42085a55f9",
8f07d773-9e4f-486c-a023-0ed544276f4e,Jane Wilson,jane.wilson@example.com,1981-10-23,671 Elm St,, Greenville,FL,,"5e03ed8a-d9fb-4271-aa1d-73df523dcc57,c6f0e3ea-fc4a-4768-a155-f0bf0b943717",
d6246695-7e0a-48e0-8301-fbfa12201faf,Emily Miller,emily.miller@example.com,1983-12-20,902 Spruce St,, Greenville,NY,,d2d40201-0152-4e55-bf95-406c1f66295b,
dc5ae249-b573-459d-a234-c26185fc0caa,Linda Moore,linda.moore@example.com,1993-03-07,279 Spruce St,, Greenville,NY,,"1e0b04ba-18d5-4ab9-a1e5-23449bbc4a0b,ab3572a8-144f-4148-9862-465bd9d7148b,1e0b04ba-18d5-4ab9-a1e5-23449bbc4a0b",
637a1b3c-e491-4f24-a2aa-9f0850455458,John Davis,john.davis@example.com,1977-03-15,576 Walnut St,, Fairview,TX,,"d2d40201-0152-4e55-bf95-406c1f66295b,2ab329ca-9f50-4c70-9698-f44934cf4b69,551cfc0c-5de9-4672-90a2-b0f5b644ed8c,551cfc0c-5de9-4672-90a2-b0f5b644ed8c",
e8110196-014d-4ae8-9778-543aba45cbf2,Sarah Taylor,sarah.taylor@example.com,1984-10-05,188 Elm St,, Greenville,CA,,"31a96803-e0b0-464c-b44c-14316de7195f,551cfc0c-5de9-4672-90a2-b0f5b644ed8c,5e03ed8a-d9fb-4271-aa1d-73df523dcc57",
d2df5e69-b47b-4f60-bb94-1038a5297581,Emily Williams,emily.williams@example.com,1966-03-11,405 Maple St,, Salem,IL,,"31a96803-e0b0-464c-b44c-14316de7195f,cc5f8133-74b9-43cc-b15e-b159a78b93fd,1e0b04ba-18d5-4ab9-a1e5-23449bbc4a0b,ab3572a8-144f-4148-9862-465bd9d7148b,91d3ffda-02df-4108-a302-e3764e021ccf",
81bcc87e-59a3-480a-8409-fdc1d510b4a2,James Wilson,james.wilson@example.com,1960-09-18,648 Maple St,, Riverside,TX,,a680ecae-78a0-4d78-88cd-4f0163e7d4da,
0611fd65-44a6-4c77-acef-4127d06579e3,Alice Taylor,alice.taylor@example.com,1963-09-10,561 Elm St,, Greenville,TX,,9a1dc165-a7e3-4d94-96b3-aed7943cd257,
f8131cc5-1f15-4262-8a60-48f956efa2eb,James Miller,james.miller@example.com,1965-01-05,221 Walnut St,, Riverside,OH,,"c8e9582b-d7bd-48cb-9cab-9f953712e952,bd5df5b0-28d6-45d5-8637-31903ae85330",
473b2e45-eec5-41cb-a7a2-df56c8d0c11f,Alice Wilson,alice.wilson@example.com,1957-07-25,462 Walnut St,, Madison,CA,,b32c172c-a1d5-4cc9-a1fc-f5f4b2365ea4,
bc90a95b-9d36-4905-aa0f-636f5c1e4216,Jane Miller,jane.miller@example.com,1991-08-07,654 Pine St,, Greenville,IL,,5538f94c-9d38-4c6c-ab29-0987d27ec313,
499eca03-0f5c-4026-859e-cd007c591ae9,Bob Doe,bob.doe@example.com,2000-01-15,129 Elm St,, Fairview,TX,,"b32c172c-a1d5-4cc9-a1fc-f5f4b2365ea4,1f2a78f5-deae-438d-be76-6d733a7dac87,bd5df5b0-28d6-45d5-8637-31903ae85330,9630ccdb-1fb5-411d-a129-562993ba0569,52e4d490-31bd-48ea-ab9b-8f9eaf720b12",
